{"fetched_at":"2026-07-17T06:37:53.254Z","source":"https://celestrak.org/NORAD/elements/gp.php?GROUP=planet&FORMAT=JSON","constellation":"superdove","records":[{"OBJECT_NAME":"FLOCK 4H-16","OBJECT_ID":"2025-276BF","EPOCH":"2026-07-16T15:36:37.880352","CLASSIFICATION_TYPE":"U","MEAN_MOTION":15.20160825,"ECCENTRICITY":0.0002863,"INCLINATION":97.4225,"RA_OF_ASC_NODE":270.7655,"ARG_OF_PERICENTER":248.5817,"MEAN_ANOMALY":111.5113,"EPHEMERIS_TYPE":0,"NORAD_CAT_ID":66719,"ELEMENT_SET_NO":999,"REV_AT_EPOCH":3489,"BSTAR":0.00015673,"MEAN_MOTION_DOT":0.00003323,"MEAN_MOTION_DDOT":0},{"OBJECT_NAME":"FLOCK 4H-18","OBJECT_ID":"2025-276BH","EPOCH":"2026-07-16T15:45:35.682336","CLASSIFICATION_TYPE":"U","MEAN_MOTION":15.20102999,"ECCENTRICITY":0.0002184,"INCLINATION":97.4168,"RA_OF_ASC_NODE":270.584,"ARG_OF_PERICENTER":283.6789,"MEAN_ANOMALY":76.4203,"EPHEMERIS_TYPE":0,"NORAD_CAT_ID":66721,"ELEMENT_SET_NO":999,"REV_AT_EPOCH":3489,"BSTAR":0.00016526,"MEAN_MOTION_DOT":0.00003502,"MEAN_MOTION_DDOT":0},{"OBJECT_NAME":"FLOCK 4H-19","OBJECT_ID":"2025-276BJ","EPOCH":"2026-07-16T15:42:53.748000","CLASSIFICATION_TYPE":"U","MEAN_MOTION":15.21294093,"ECCENTRICITY":0.0002472,"INCLINATION":97.417,"RA_OF_ASC_NODE":271.0474,"ARG_OF_PERICENTER":146.6491,"MEAN_ANOMALY":213.4901,"EPHEMERIS_TYPE":0,"NORAD_CAT_ID":66722,"ELEMENT_SET_NO":999,"REV_AT_EPOCH":3421,"BSTAR":0.00013803,"MEAN_MOTION_DOT":0.00003018,"MEAN_MOTION_DDOT":0},{"OBJECT_NAME":"FLOCK 4H-20","OBJECT_ID":"2025-276BK","EPOCH":"2026-07-16T15:45:45.766944","CLASSIFICATION_TYPE":"U","MEAN_MOTION":15.21456832,"ECCENTRICITY":0.000303,"INCLINATION":97.4205,"RA_OF_ASC_NODE":271.1564,"ARG_OF_PERICENTER":166.3689,"MEAN_ANOMALY":193.7629,"EPHEMERIS_TYPE":0,"NORAD_CAT_ID":66723,"ELEMENT_SET_NO":999,"REV_AT_EPOCH":3417,"BSTAR":0.00015835,"MEAN_MOTION_DOT":0.00003489,"MEAN_MOTION_DDOT":0},{"OBJECT_NAME":"FLOCK 4H-21","OBJECT_ID":"2025-276BL","EPOCH":"2026-07-16T14:56:45.549024","CLASSIFICATION_TYPE":"U","MEAN_MOTION":15.2104005,"ECCENTRICITY":0.0002843,"INCLINATION":97.4173,"RA_OF_ASC_NODE":270.9453,"ARG_OF_PERICENTER":165.0232,"MEAN_ANOMALY":195.1088,"EPHEMERIS_TYPE":0,"NORAD_CAT_ID":66724,"ELEMENT_SET_NO":999,"REV_AT_EPOCH":3416,"BSTAR":0.00015952,"MEAN_MOTION_DOT":0.00003472,"MEAN_MOTION_DDOT":0},{"OBJECT_NAME":"FLOCK 4H-22","OBJECT_ID":"2025-276BM","EPOCH":"2026-07-16T16:01:36.466752","CLASSIFICATION_TYPE":"U","MEAN_MOTION":15.20535015,"ECCENTRICITY":0.0001024,"INCLINATION":97.4161,"RA_OF_ASC_NODE":270.6989,"ARG_OF_PERICENTER":283.684,"MEAN_ANOMALY":76.4281,"EPHEMERIS_TYPE":0,"NORAD_CAT_ID":66725,"ELEMENT_SET_NO":999,"REV_AT_EPOCH":3490,"BSTAR":0.00018492,"MEAN_MOTION_DOT":0.00003977,"MEAN_MOTION_DDOT":0},{"OBJECT_NAME":"FLOCK 4H-23","OBJECT_ID":"2025-276BN","EPOCH":"2026-07-16T15:44:40.180704","CLASSIFICATION_TYPE":"U","MEAN_MOTION":15.20081536,"ECCENTRICITY":0.0003104,"INCLINATION":97.4231,"RA_OF_ASC_NODE":270.7723,"ARG_OF_PERICENTER":236.9898,"MEAN_ANOMALY":123.1039,"EPHEMERIS_TYPE":0,"NORAD_CAT_ID":66726,"ELEMENT_SET_NO":999,"REV_AT_EPOCH":3489,"BSTAR":0.00016295,"MEAN_MOTION_DOT":0.0000345,"MEAN_MOTION_DDOT":0},{"OBJECT_NAME":"FLOCK 4H-24","OBJECT_ID":"2025-276BP","EPOCH":"2026-07-16T15:22:36.668352","CLASSIFICATION_TYPE":"U","MEAN_MOTION":15.20190924,"ECCENTRICITY":0.0002411,"INCLINATION":97.4227,"RA_OF_ASC_NODE":270.7863,"ARG_OF_PERICENTER":258.7529,"MEAN_ANOMALY":101.3435,"EPHEMERIS_TYPE":0,"NORAD_CAT_ID":66727,"ELEMENT_SET_NO":999,"REV_AT_EPOCH":3489,"BSTAR":0.00016965,"MEAN_MOTION_DOT":0.00003606,"MEAN_MOTION_DDOT":0},{"OBJECT_NAME":"FLOCK 4H-25","OBJECT_ID":"2025-276BQ","EPOCH":"2026-07-16T04:20:18.833856","CLASSIFICATION_TYPE":"U","MEAN_MOTION":15.20952719,"ECCENTRICITY":0.0001886,"INCLINATION":97.4185,"RA_OF_ASC_NODE":270.5014,"ARG_OF_PERICENTER":126.41,"MEAN_ANOMALY":233.7309,"EPHEMERIS_TYPE":0,"NORAD_CAT_ID":66728,"ELEMENT_SET_NO":999,"REV_AT_EPOCH":3412,"BSTAR":0.00015183,"MEAN_MOTION_DOT":0.00003293,"MEAN_MOTION_DDOT":0},{"OBJECT_NAME":"FLOCK 4H-26","OBJECT_ID":"2025-276BR","EPOCH":"2026-07-16T14:36:19.927008","CLASSIFICATION_TYPE":"U","MEAN_MOTION":15.19914456,"ECCENTRICITY":0.0003258,"INCLINATION":97.4182,"RA_OF_ASC_NODE":270.5353,"ARG_OF_PERICENTER":257.9347,"MEAN_ANOMALY":102.1523,"EPHEMERIS_TYPE":0,"NORAD_CAT_ID":66729,"ELEMENT_SET_NO":999,"REV_AT_EPOCH":3488,"BSTAR":0.00018922,"MEAN_MOTION_DOT":0.00003997,"MEAN_MOTION_DDOT":0},{"OBJECT_NAME":"FLOCK 4H-27","OBJECT_ID":"2025-276BS","EPOCH":"2026-07-16T16:07:48.480096","CLASSIFICATION_TYPE":"U","MEAN_MOTION":15.20780664,"ECCENTRICITY":0.0001659,"INCLINATION":97.4158,"RA_OF_ASC_NODE":270.8378,"ARG_OF_PERICENTER":128.3402,"MEAN_ANOMALY":231.7983,"EPHEMERIS_TYPE":0,"NORAD_CAT_ID":66730,"ELEMENT_SET_NO":999,"REV_AT_EPOCH":3491,"BSTAR":0.00017483,"MEAN_MOTION_DOT":0.00003783,"MEAN_MOTION_DDOT":0},{"OBJECT_NAME":"FLOCK 4H-29","OBJECT_ID":"2025-276BU","EPOCH":"2026-07-16T15:41:27.640032","CLASSIFICATION_TYPE":"U","MEAN_MOTION":15.20054767,"ECCENTRICITY":0.0001656,"INCLINATION":97.416,"RA_OF_ASC_NODE":270.5619,"ARG_OF_PERICENTER":273.4106,"MEAN_ANOMALY":86.694,"EPHEMERIS_TYPE":0,"NORAD_CAT_ID":66732,"ELEMENT_SET_NO":999,"REV_AT_EPOCH":3489,"BSTAR":0.00016609,"MEAN_MOTION_DOT":0.00003515,"MEAN_MOTION_DDOT":0},{"OBJECT_NAME":"FLOCK 4H-30","OBJECT_ID":"2025-276BV","EPOCH":"2026-07-16T15:29:37.838112","CLASSIFICATION_TYPE":"U","MEAN_MOTION":15.20176476,"ECCENTRICITY":0.0002679,"INCLINATION":97.4222,"RA_OF_ASC_NODE":270.7628,"ARG_OF_PERICENTER":257.8027,"MEAN_ANOMALY":102.2908,"EPHEMERIS_TYPE":0,"NORAD_CAT_ID":66733,"ELEMENT_SET_NO":999,"REV_AT_EPOCH":3489,"BSTAR":0.00015931,"MEAN_MOTION_DOT":0.0000338,"MEAN_MOTION_DDOT":0},{"OBJECT_NAME":"FLOCK 4H-31","OBJECT_ID":"2025-276BW","EPOCH":"2026-07-16T16:00:08.813088","CLASSIFICATION_TYPE":"U","MEAN_MOTION":15.19952356,"ECCENTRICITY":0.0002102,"INCLINATION":97.4159,"RA_OF_ASC_NODE":270.5417,"ARG_OF_PERICENTER":268.6537,"MEAN_ANOMALY":91.4458,"EPHEMERIS_TYPE":0,"NORAD_CAT_ID":66734,"ELEMENT_SET_NO":999,"REV_AT_EPOCH":3489,"BSTAR":0.00016658,"MEAN_MOTION_DOT":0.00003514,"MEAN_MOTION_DDOT":0},{"OBJECT_NAME":"FLOCK 4H-32","OBJECT_ID":"2025-276BX","EPOCH":"2026-07-16T15:42:33.997824","CLASSIFICATION_TYPE":"U","MEAN_MOTION":15.20072079,"ECCENTRICITY":0.0003086,"INCLINATION":97.4215,"RA_OF_ASC_NODE":270.7273,"ARG_OF_PERICENTER":254.5157,"MEAN_ANOMALY":105.5738,"EPHEMERIS_TYPE":0,"NORAD_CAT_ID":66735,"ELEMENT_SET_NO":999,"REV_AT_EPOCH":3489,"BSTAR":0.00015866,"MEAN_MOTION_DOT":0.00003356,"MEAN_MOTION_DDOT":0},{"OBJECT_NAME":"FLOCK 4H-33","OBJECT_ID":"2025-276BY","EPOCH":"2026-07-16T16:15:30.377952","CLASSIFICATION_TYPE":"U","MEAN_MOTION":15.211999,"ECCENTRICITY":0.0002862,"INCLINATION":97.4211,"RA_OF_ASC_NODE":271.1452,"ARG_OF_PERICENTER":158.6605,"MEAN_ANOMALY":201.4751,"EPHEMERIS_TYPE":0,"NORAD_CAT_ID":66736,"ELEMENT_SET_NO":999,"REV_AT_EPOCH":3492,"BSTAR":0.00016698,"MEAN_MOTION_DOT":0.00003655,"MEAN_MOTION_DDOT":0}]}
