FLOCK 4H-16             
1 66719U 25276BF  26197.65043843  .00003323  00000+0  15673-3 0  9994
2 66719  97.4225 270.7655 0002863 248.5817 111.5113 15.20160825 34893
FLOCK 4H-18             
1 66721U 25276BH  26197.65666299  .00003502  00000+0  16526-3 0  9990
2 66721  97.4168 270.5840 0002184 283.6789  76.4203 15.20102999 34897
FLOCK 4H-19             
1 66722U 25276BJ  26197.65478875  .00003018  00000+0  13803-3 0  9999
2 66722  97.4170 271.0474 0002472 146.6491 213.4901 15.21294093 34210
FLOCK 4H-20             
1 66723U 25276BK  26197.65677971  .00003489  00000+0  15835-3 0  9997
2 66723  97.4205 271.1564 0003030 166.3689 193.7629 15.21456832 34173
FLOCK 4H-21             
1 66724U 25276BL  26197.62274941  .00003472  00000+0  15952-3 0  9997
2 66724  97.4173 270.9453 0002843 165.0232 195.1088 15.21040050 34168
FLOCK 4H-22             
1 66725U 25276BM  26197.66778318  .00003977  00000+0  18492-3 0  9991
2 66725  97.4161 270.6989 0001024 283.6840  76.4281 15.20535015 34906
FLOCK 4H-23             
1 66726U 25276BN  26197.65602061  .00003450  00000+0  16295-3 0  9997
2 66726  97.4231 270.7723 0003104 236.9898 123.1039 15.20081536 34890
FLOCK 4H-24             
1 66727U 25276BP  26197.64070218  .00003606  00000+0  16965-3 0  9997
2 66727  97.4227 270.7863 0002411 258.7529 101.3435 15.20190924 34894
FLOCK 4H-25             
1 66728U 25276BQ  26197.18077354  .00003293  00000+0  15183-3 0  9998
2 66728  97.4185 270.5014 0001886 126.4100 233.7309 15.20952719 34129
FLOCK 4H-26             
1 66729U 25276BR  26197.60856397  .00003997  00000+0  18922-3 0  9993
2 66729  97.4182 270.5353 0003258 257.9347 102.1523 15.19914456 34885
FLOCK 4H-27             
1 66730U 25276BS  26197.67208889  .00003783  00000+0  17483-3 0  9993
2 66730  97.4158 270.8378 0001659 128.3402 231.7983 15.20780664 34913
FLOCK 4H-29             
1 66732U 25276BU  26197.65379213  .00003515  00000+0  16609-3 0  9995
2 66732  97.4160 270.5619 0001656 273.4106  86.6940 15.20054767 34898
FLOCK 4H-30             
1 66733U 25276BV  26197.64557683  .00003380  00000+0  15931-3 0  9991
2 66733  97.4222 270.7628 0002679 257.8027 102.2908 15.20176476 34895
FLOCK 4H-31             
1 66734U 25276BW  26197.66676867  .00003514  00000+0  16658-3 0  9996
2 66734  97.4159 270.5417 0002102 268.6537  91.4458 15.19952356 34892
FLOCK 4H-32             
1 66735U 25276BX  26197.65456016  .00003356  00000+0  15866-3 0  9992
2 66735  97.4215 270.7273 0003086 254.5157 105.5738 15.20072079 34897
FLOCK 4H-33             
1 66736U 25276BY  26197.67743493  .00003655  00000+0  16698-3 0  9999
2 66736  97.4211 271.1452 0002862 158.6605 201.4751 15.21199900 34920
